{"type": "FeatureCollection", "features": [ {"type": "Feature", "properties": {"norad_id": 66767, "name": "TRANSPORTER-15DF", "group": "last-30-days", "lat": 68.95982453867974, "lon": 49.362336918491536, "alt_km": 502.8508618362612, "timestamp": "2025-12-23T14:49:07.964921+00:00", "meta": {"OBJECT_NAME": "TRANSPORTER-15DF", "OBJECT_ID": "2025-276DF", "EPOCH": "2025-12-23T03:26:19.394592", "MEAN_MOTION": 15.18318546, "ECCENTRICITY": 0.00020847, "INCLINATION": 97.437, "RA_OF_ASC_NODE": 68.7473, "ARG_OF_PERICENTER": 89.7278, "MEAN_ANOMALY": 270.4195, "EPHEMERIS_TYPE": 0, "CLASSIFICATION_TYPE": "U", "NORAD_CAT_ID": 66767, "ELEMENT_SET_NO": 999, "REV_AT_EPOCH": 370, "BSTAR": 0.00046855536, "MEAN_MOTION_DOT": 9.553e-05, "MEAN_MOTION_DDOT": 0}, "tle": {"line1": "1 66767U 25276DF  25357.14328003  .00009553  00000+0  46856-3 0  9990", "line2": "2 66767  97.4370  68.7473 0002084  89.7278 270.4195 15.18318546  3704"}}, "geometry": {"type": "Point", "coordinates": [49.362336918491536, 68.95982453867974]}}, {"type": "Feature", "properties": {"norad_id": 66768, "name": "TRANSPORTER-15DG", "group": "last-30-days", "lat": 79.36189007027848, "lon": 25.164378613729898, "alt_km": 501.3885212222958, "timestamp": "2025-12-23T14:49:07.964932+00:00", "meta": {"OBJECT_NAME": "TRANSPORTER-15DG", "OBJECT_ID": "2025-276DG", "EPOCH": "2025-12-23T03:23:13.993152", "MEAN_MOTION": 15.18525171, "ECCENTRICITY": 0.00022238, "INCLINATION": 97.4355, "RA_OF_ASC_NODE": 68.7462, "ARG_OF_PERICENTER": 78.1887, "MEAN_ANOMALY": 281.9597, "EPHEMERIS_TYPE": 0, "CLASSIFICATION_TYPE": "U", "NORAD_CAT_ID": 66768, "ELEMENT_SET_NO": 999, "REV_AT_EPOCH": 370, "BSTAR": 0.00060133061, "MEAN_MOTION_DOT": 0.00012357, "MEAN_MOTION_DDOT": 0}, "tle": {"line1": "1 66768U 25276DG  25357.14113418  .00012357  00000+0  60133-3 0  9993", "line2": "2 66768  97.4355  68.7462 0002223  78.1887 281.9597 15.18525171  3706"}}, "geometry": {"type": "Point", "coordinates": [25.164378613729898, 79.36189007027848]}}, {"type": "Feature", "properties": {"norad_id": 66769, "name": "TRANSPORTER-15DH", "group": "last-30-days", "lat": 75.18719732505744, "lon": 39.60915956663413, "alt_km": 501.8815118438797, "timestamp": "2025-12-23T14:49:07.964944+00:00", "meta": {"OBJECT_NAME": "TRANSPORTER-15DH", "OBJECT_ID": "2025-276DH", "EPOCH": "2025-12-23T03:24:32.774400", "MEAN_MOTION": 15.1840353, "ECCENTRICITY": 0.00026924, "INCLINATION": 97.4418, "RA_OF_ASC_NODE": 68.7631, "ARG_OF_PERICENTER": 106.9621, "MEAN_ANOMALY": 253.1908, "EPHEMERIS_TYPE": 0, "CLASSIFICATION_TYPE": "U", "NORAD_CAT_ID": 66769, "ELEMENT_SET_NO": 999, "REV_AT_EPOCH": 370, "BSTAR": 0.00031141349, "MEAN_MOTION_DOT": 6.34e-05, "MEAN_MOTION_DDOT": 0}, "tle": {"line1": "1 66769U 25276DH  25357.14204600  .00006340  00000+0  31141-3 0  9990", "line2": "2 66769  97.4418  68.7631 0002692 106.9621 253.1908 15.18403530  3702"}}, "geometry": {"type": "Point", "coordinates": [39.60915956663413, 75.18719732505744]}}, {"type": "Feature", "properties": {"norad_id": 66770, "name": "TRANSPORTER-15DJ", "group": "last-30-days", "lat": 76.72032211559646, "lon": 35.59609696044255, "alt_km": 501.79680008937703, "timestamp": "2025-12-23T14:49:07.964954+00:00", "meta": {"OBJECT_NAME": "TRANSPORTER-15DJ", "OBJECT_ID": "2025-276DJ", "EPOCH": "2025-12-23T03:24:03.838176", "MEAN_MOTION": 15.18396934, "ECCENTRICITY": 0.00031408, "INCLINATION": 97.445, "RA_OF_ASC_NODE": 68.7739, "ARG_OF_PERICENTER": 121.2767, "MEAN_ANOMALY": 238.8775, "EPHEMERIS_TYPE": 0, "CLASSIFICATION_TYPE": "U", "NORAD_CAT_ID": 66770, "ELEMENT_SET_NO": 999, "REV_AT_EPOCH": 370, "BSTAR": 0.00047335737, "MEAN_MOTION_DOT": 9.674e-05, "MEAN_MOTION_DDOT": 0}, "tle": {"line1": "1 66770U 25276DJ  25357.14171109  .00009674  00000+0  47336-3 0  9995", "line2": "2 66770  97.4450  68.7739 0003140 121.2767 238.8775 15.18396934  3700"}}, "geometry": {"type": "Point", "coordinates": [35.59609696044255, 76.72032211559646]}}, {"type": "Feature", "properties": {"norad_id": 66771, "name": "TRANSPORTER-15DK", "group": "last-30-days", "lat": 78.72236907079149, "lon": 28.267937336687638, "alt_km": 501.3298072170028, "timestamp": "2025-12-23T14:49:07.964968+00:00", "meta": {"OBJECT_NAME": "TRANSPORTER-15DK", "OBJECT_ID": "2025-276DK", "EPOCH": "2025-12-23T03:23:26.021760", "MEAN_MOTION": 15.18472394, "ECCENTRICITY": 0.00029558, "INCLINATION": 97.4443, "RA_OF_ASC_NODE": 68.7716, "ARG_OF_PERICENTER": 112.4527, "MEAN_ANOMALY": 247.702, "EPHEMERIS_TYPE": 0, "CLASSIFICATION_TYPE": "U", "NORAD_CAT_ID": 66771, "ELEMENT_SET_NO": 999, "REV_AT_EPOCH": 370, "BSTAR": 0.00051886965, "MEAN_MOTION_DOT": 0.00010635, "MEAN_MOTION_DDOT": 0}, "tle": {"line1": "1 66771U 25276DK  25357.14127340  .00010635  00000+0  51887-3 0  9999", "line2": "2 66771  97.4443  68.7716 0002955 112.4527 247.7020 15.18472394  3704"}}, "geometry": {"type": "Point", "coordinates": [28.267937336687638, 78.72236907079149]}}, {"type": "Feature", "properties": {"norad_id": 66772, "name": "TRANSPORTER-15DL", "group": "last-30-days", "lat": 81.1444393922545, "lon": -53.70438008333009, "alt_km": 500.32550444131084, "timestamp": "2025-12-23T14:49:07.964991+00:00", "meta": {"OBJECT_NAME": "TRANSPORTER-15DL", "OBJECT_ID": "2025-276DL", "EPOCH": "2025-12-23T03:20:02.228352", "MEAN_MOTION": 15.18686186, "ECCENTRICITY": 0.00029664, "INCLINATION": 97.4437, "RA_OF_ASC_NODE": 68.7717, "ARG_OF_PERICENTER": 101.9487, "MEAN_ANOMALY": 258.208, "EPHEMERIS_TYPE": 0, "CLASSIFICATION_TYPE": "U", "NORAD_CAT_ID": 66772, "ELEMENT_SET_NO": 999, "REV_AT_EPOCH": 370, "BSTAR": 0.00047977026, "MEAN_MOTION_DOT": 9.888e-05, "MEAN_MOTION_DDOT": 0}, "tle": {"line1": "1 66772U 25276DL  25357.13891468  .00009888  00000+0  47977-3 0  9991", "line2": "2 66772  97.4437  68.7717 0002966 101.9487 258.2080 15.18686186  3708"}}, "geometry": {"type": "Point", "coordinates": [-53.70438008333009, 81.1444393922545]}}, {"type": "Feature", "properties": {"norad_id": 66773, "name": "TRANSPORTER-15DM", "group": "last-30-days", "lat": 82.26339921448195, "lon": -4.982508035811896, "alt_km": 500.69276146924676, "timestamp": "2025-12-23T14:49:07.965010+00:00", "meta": {"OBJECT_NAME": "TRANSPORTER-15DM", "OBJECT_ID": "2025-276DM", "EPOCH": "2025-12-23T03:21:46.733472", "MEAN_MOTION": 15.18526197, "ECCENTRICITY": 0.00031393, "INCLINATION": 97.4433, "RA_OF_ASC_NODE": 68.7693, "ARG_OF_PERICENTER": 101.0681, "MEAN_ANOMALY": 259.0907, "EPHEMERIS_TYPE": 0, "CLASSIFICATION_TYPE": "U", "NORAD_CAT_ID": 66773, "ELEMENT_SET_NO": 999, "REV_AT_EPOCH": 370, "BSTAR": 0.00035623722, "MEAN_MOTION_DOT": 7.289e-05, "MEAN_MOTION_DDOT": 0}, "tle": {"line1": "1 66773U 25276DM  25357.14012423  .00007289  00000+0  35624-3 0  9998", "line2": "2 66773  97.4433  68.7693 0003139 101.0681 259.0907 15.18526197  3700"}}, "geometry": {"type": "Point", "coordinates": [-4.982508035811896, 82.26339921448195]}}, {"type": "Feature", "properties": {"norad_id": 66774, "name": "TRANSPORTER-15DN", "group": "last-30-days", "lat": 82.51338730373196, "lon": -26.7071829012715, "alt_km": 500.5297462656972, "timestamp": "2025-12-23T14:49:07.965028+00:00", "meta": {"OBJECT_NAME": "TRANSPORTER-15DN", "OBJECT_ID": "2025-276DN", "EPOCH": "2025-12-23T03:21:03.168000", "MEAN_MOTION": 15.1858708, "ECCENTRICITY": 0.00030313, "INCLINATION": 97.4417, "RA_OF_ASC_NODE": 68.7656, "ARG_OF_PERICENTER": 97.6802, "MEAN_ANOMALY": 262.4776, "EPHEMERIS_TYPE": 0, "CLASSIFICATION_TYPE": "U", "NORAD_CAT_ID": 66774, "ELEMENT_SET_NO": 999, "REV_AT_EPOCH": 370, "BSTAR": 0.00053363025, "MEAN_MOTION_DOT": 0.00010976, "MEAN_MOTION_DDOT": 0}, "tle": {"line1": "1 66774U 25276DN  25357.13962000  .00010976  00000+0  53363-3 0  9990", "line2": "2 66774  97.4417  68.7656 0003031  97.6802 262.4776 15.18587080  3708"}}, "geometry": {"type": "Point", "coordinates": [-26.7071829012715, 82.51338730373196]}}, {"type": "Feature", "properties": {"norad_id": 66775, "name": "PHI 1", "group": "last-30-days", "lat": 80.94413841073298, "lon": -55.77444953425114, "alt_km": 500.7427705967739, "timestamp": "2025-12-23T14:49:07.965045+00:00", "meta": {"OBJECT_NAME": "PHI 1", "OBJECT_ID": "2025-276DP", "EPOCH": "2025-12-23T03:19:55.653312", "MEAN_MOTION": 15.18652826, "ECCENTRICITY": 0.00028508, "INCLINATION": 97.4342, "RA_OF_ASC_NODE": 68.7452, "ARG_OF_PERICENTER": 68.1193, "MEAN_ANOMALY": 292.0344, "EPHEMERIS_TYPE": 0, "CLASSIFICATION_TYPE": "U", "NORAD_CAT_ID": 66775, "ELEMENT_SET_NO": 999, "REV_AT_EPOCH": 370, "BSTAR": 0.00053958417, "MEAN_MOTION_DOT": 0.00011121, "MEAN_MOTION_DDOT": 0}, "tle": {"line1": "1 66775U 25276DP  25357.13883858  .00011121  00000+0  53958-3 0  9997", "line2": "2 66775  97.4342  68.7452 0002850  68.1193 292.0344 15.18652826  3705"}}, "geometry": {"type": "Point", "coordinates": [-55.77444953425114, 80.94413841073298]}}, {"type": "Feature", "properties": {"norad_id": 66776, "name": "TRANSPORTER-15DQ", "group": "last-30-days", "lat": 79.62090955798507, "lon": -65.26885788734108, "alt_km": 500.4191009325996, "timestamp": "2025-12-23T14:49:07.965065+00:00", "meta": {"OBJECT_NAME": "TRANSPORTER-15DQ", "OBJECT_ID": "2025-276DQ", "EPOCH": "2025-12-23T04:54:16.730784", "MEAN_MOTION": 15.18697034, "ECCENTRICITY": 0.00029586, "INCLINATION": 97.4381, "RA_OF_ASC_NODE": 68.8213, "ARG_OF_PERICENTER": 83.6761, "MEAN_ANOMALY": 276.481, "EPHEMERIS_TYPE": 0, "CLASSIFICATION_TYPE": "U", "NORAD_CAT_ID": 66776, "ELEMENT_SET_NO": 999, "REV_AT_EPOCH": 371, "BSTAR": 0.00056949989, "MEAN_MOTION_DOT": 0.00011757, "MEAN_MOTION_DDOT": 0}, "tle": {"line1": "1 66776U 25276DQ  25357.20436031  .00011757  00000+0  56950-3 0  9993", "line2": "2 66776  97.4381  68.8213 0002958  83.6761 276.4810 15.18697034  3712"}}, "geometry": {"type": "Point", "coordinates": [-65.26885788734108, 79.62090955798507]}}]}